0 LEMUR 1
1 40044U 14033AL  26161.22000795  .00002127  00000-0  24896-3 0  9998
2 40044  97.7867 311.1809 0049756 100.8769 259.8051 14.85218903644435
0 LEMUR 2 GREENBERG
1 42837U 17042N   26161.48675735  .00014150  00000-0  47226-3 0  9994
2 42837  97.3820 342.1441 0009187  37.1811 323.0064 15.31122099487369
0 LEMUR 2 ANDIS
1 42838U 17042P   26160.74878637  .00021256  00000-0  63563-3 0  9996
2 42838  97.3682 341.5686 0008771  38.8690 321.3182 15.34551135487318
0 LEMUR 2 MONSON
1 42839U 17042Q   26161.48105355  .00012578  00000-0  46489-3 0  9994
2 42839  97.4079 342.1208 0006887  29.6485 330.5143 15.27835395487148
0 LEMUR 2 FURIAUS
1 42840U 17042R   26161.41040731  .00016426  00000-0  56652-3 0  9994
2 42840  97.3771 340.0388 0008501  89.8327 270.3888 15.30030493487172
0 LEMUR 2 PETERG
1 42841U 17042S   26161.25028109  .00020948  00000-0  64576-3 0  9990
2 42841  97.3992 346.2718 0003820  23.6567 336.4850 15.33619587487379
0 LEMUR 2 DEMBITZ
1 42842U 17042T   26161.49590913  .00013631  00000-0  46998-3 0  9993
2 42842  97.3823 343.1422 0007315  50.8523 309.3367 15.30090720487324
0 LEMUR 2 ZACHARY
1 42845U 17042W   26161.41131056  .00043377  00000-0  78117-3 0  9995
2 42845  97.3609 352.9074 0003377  57.5477 302.6100 15.49680313488152
0 LEMUR 2 AMANDA-SVANTE
1 48269U 21034B   26161.18254014  .00029956  00000-0  91413-3 0  9992
2 48269  97.5763 239.2860 0001483 235.0139 125.0964 15.33876521279980
0 LEMUR 2 SPECIAL K
1 48273U 21034F   26161.49344833  .00120061  00000-0  13296-2 0  9991
2 48273  97.5646 247.8763 0003496 231.6159 128.4785 15.62586259280643
0 LEMUR 2 EMBRIONOVIS
1 56970U 23084AQ  26161.30282397  .00012392  00000-0  34009-3 0  9990
2 56970  97.6278 305.2397 0008195 347.2971  12.8065 15.37378212166625
0 LEMUR 2 DEVERILL-M-T
1 57391U 23100F   26160.82566060  .00026890  00000-0  68821-3 0  9992
2 57391  99.4479 197.4603 0007038  73.2264 286.9746 15.39391302160118
0 LEMUR 2 BASS
1 58259U 23174D   26161.46568975  .00016353  00000-0  37402-3 0  9999
2 58259  97.3848 246.0855 0007229 183.9620 176.1572 15.42871086144324
0 LEMUR 2 JK0903EM1407
1 58336U 23174CJ  26161.24270251  .00025385  00000-0  43286-3 0  9990
2 58336  97.3913 251.5204 0005941 139.0791 221.0908 15.51324242144658
0 LEMUR 2 MJR092620
1 58340U 23174CN  26161.48669454  .00017618  00000-0  37968-3 0  9998
2 58340  97.3970 251.3937 0007103 137.1078 223.0726 15.44627438144617
0 LEMUR 2 NIMBUS2000
1 58899U 24022A   26161.58062514  .00015243  00000-0  38596-3 0  9995
2 58899  97.4121  11.5005 0010088 136.1802 224.0246 15.39784442131254
0 LEMUR 2 VALHALLA
1 58900U 24022B   26161.57547815  .00014282  00000-0  36544-3 0  9992
2 58900  97.4119  11.4895 0010647 132.3999 227.8150 15.39471109131254
0 LEMUR 2 OBA-NI-JESU
1 58902U 24022D   26161.55752603  .01712016  27073-2  12846-2 0  9995
2 58902  97.3668  26.3846 0005148 213.1239 146.9726 16.16043253132263
0 LEMUR 2 CAEL
1 58903U 24022E   26161.52591415  .00015555  00000-0  38153-3 0  9997
2 58903  97.4103  12.3636 0009222 117.1214 243.0974 15.40756490131313
0 LEMUR 2 JOHNNYTRUONG
1 59146U 24043BA  26161.15920607  .00039087  00000-0  48461-3 0  9997
2 59146  97.5369 312.4307 0004616 197.4130 162.6969 15.59943500126940
0 LEMUR 2 TOMATOKECHUP
1 60471U 24149D   26161.20164126  .00009591  00000-0  27691-3 0  9998
2 60471  97.3797 243.2313 0000742 194.7677 165.3545 15.35884698101091
0 LEMUR 2 STELLA
1 60533U 24149BT  26161.46270785  .00010082  00000-0  59622-3 0  9990
2 60533  97.6731 243.8889 0001729  99.7271 260.4154 15.11661191 99482
0 LEMUR 2 MARHISYAM
1 60536U 24149BW  26161.24194924  .00010787  00000-0  64713-3 0  9998
2 60536  97.6879 244.1092 0003102 130.9350 229.2148 15.11118694 99437
0 LEMUR 2 AHMED-ASRAR
1 60576U 24149DN  26161.48118874  .00010604  00000-0  61144-3 0  9991
2 60576  97.7001 246.4168 0002463  59.8408 300.3066 15.12561509 99551
0 LEMUR 2 LLOYD
1 60577U 24149DP  26161.54458679  .00008902  00000-0  56500-3 0  9997
2 60577  97.6749 242.6706 0004671 154.1985 205.9477 15.09111183 99391
0 LEMUR 2 SQUIRRELCOMM
1 60578U 24149DQ  26161.48329219  .00005385  00000-0  36287-3 0  9990
2 60578  97.6715 242.4160 0007020  80.7150 279.4871 15.07078110 99390
0 LEMUR 2 SIERRINI
1 60579U 24149DR  26161.46271368  .00009809  00000-0  59397-3 0  9992
2 60579  97.6835 244.0258 0005294 185.7617 174.3552 15.10801870 99441
0 LEMUR 2 WILSON
1 62694U 25009CP  26161.46948525  .00001632  00000-0  15390-3 0  9995
2 62694  97.7023 240.0521 0004417  71.2185 288.9514 14.95136052 76355
0 LEMUR 2 STAR-FOX
1 62696U 25009CR  26160.96663948  .00007910  00000-0  60153-3 0  9996
2 62696  97.6948 242.6277 0003078 130.7353 229.4140 15.02396930 76478
